STARLINK-35721          
1 67046U 25294S   26002.60131379  .00140815  00000+0  23603-2 0  9999
2 67046  43.0003  56.3491 0001368 250.8365 109.2347 15.50613487  4639
STARLINK-35779          
1 67047U 25294T   26002.60106096 -.00319171  00000+0 -57799-2 0  9996
2 67047  43.0003  56.3472 0002109 254.5006 105.5621 15.49984203  4635
STARLINK-35905          
1 67048U 25294U   26002.75002314 -.02053151  00000+0 -46957-1 0  9999
2 67048  43.0005  55.4959 0001323 282.9580 181.8657 15.45537709  3587
STARLINK-35877          
1 67049U 25294V   26002.75002314  .00049180  00000+0  11789-2 0  9999
2 67049  43.0009  55.5630 0001465 288.5320 148.3278 15.40651195  3678
STARLINK-36078          
1 67050U 25294W   26002.59994269  .00103113  00000+0  17357-2 0  9996
2 67050  43.0007  56.3378 0001468 254.7097 105.3601 15.50654844  4630
STARLINK-35706          
1 67051U 25294X   26002.59959608  .00110717  00000+0  18638-2 0  9996
2 67051  43.0006  56.3351 0001540 255.1431 104.9259 15.50618630  4636
STARLINK-35720          
1 67052U 25294Y   26002.59925494  .00141296  00000+0  23678-2 0  9999
2 67052  43.0006  56.3324 0001448 254.9027 105.1673 15.50617303  4631
STARLINK-35739          
1 67053U 25294Z   26002.59891213  .00142643  00000+0  23902-2 0  9998
2 67053  43.0007  56.3299 0001484 261.6899  98.3793 15.50614572  4637
STARLINK-35754          
1 67054U 25294AA  26002.59856703  .00109418  00000+0  18426-2 0  9992
2 67054  43.0005  56.3266 0001553 257.8139 102.2547 15.50614927  4637
STARLINK-35790          
1 67055U 25294AB  26002.59822458  .00105814  00000+0  17832-2 0  9999
2 67055  43.0003  56.3228 0001624 260.9913  99.0763 15.50610647  4636
STARLINK-36143          
1 67056U 25294AC  26002.27516508 -.00184142  00000+0 -32411-2 0  9994
2 67056  43.0002  58.1981 0001273 265.4668  94.6047 15.50285346  4583
STARLINK-36141          
1 67057U 25294AD  26002.59755300  .00045612  00000+0  78063-3 0  9995
2 67057  43.0006  56.3183 0001393 271.7628  88.3073 15.50512095  4630
