CCSDS_OMM_VERS = 2.0
CREATION_DATE  = 
ORIGINATOR     = 

OBJECT_NAME    = STARLINK-35721
OBJECT_ID      = 2025-294S
CENTER_NAME    = EARTH
REF_FRAME      = TEME
TIME_SYSTEM    = UTC
MEAN_ELEMENT_THEORY = SGP/SGP4

EPOCH          = 2026-01-02T14:25:53.511456
MEAN_MOTION    = 15.50613487
ECCENTRICITY   = .0001368
INCLINATION    = 43.0003
RA_OF_ASC_NODE = 56.3491
ARG_OF_PERICENTER = 250.8365
MEAN_ANOMALY   = 109.2347

EPHEMERIS_TYPE = 0
CLASSIFICATION_TYPE = U
NORAD_CAT_ID   = 67046
ELEMENT_SET_NO = 999
REV_AT_EPOCH   = 463
BSTAR          = .23603E-2
MEAN_MOTION_DOT = .140815E-2
MEAN_MOTION_DDOT = 0

CCSDS_OMM_VERS = 2.0
CREATION_DATE  = 
ORIGINATOR     = 

OBJECT_NAME    = STARLINK-35779
OBJECT_ID      = 2025-294T
CENTER_NAME    = EARTH
REF_FRAME      = TEME
TIME_SYSTEM    = UTC
MEAN_ELEMENT_THEORY = SGP/SGP4

EPOCH          = 2026-01-02T14:25:31.666944
MEAN_MOTION    = 15.49984203
ECCENTRICITY   = .0002109
INCLINATION    = 43.0003
RA_OF_ASC_NODE = 56.3472
ARG_OF_PERICENTER = 254.5006
MEAN_ANOMALY   = 105.5621

EPHEMERIS_TYPE = 0
CLASSIFICATION_TYPE = U
NORAD_CAT_ID   = 67047
ELEMENT_SET_NO = 999
REV_AT_EPOCH   = 463
BSTAR          = -.57799E-2
MEAN_MOTION_DOT = -.319171E-2
MEAN_MOTION_DDOT = 0

CCSDS_OMM_VERS = 2.0
CREATION_DATE  = 
ORIGINATOR     = 

OBJECT_NAME    = STARLINK-35905
OBJECT_ID      = 2025-294U
CENTER_NAME    = EARTH
REF_FRAME      = TEME
TIME_SYSTEM    = UTC
MEAN_ELEMENT_THEORY = SGP/SGP4

EPOCH          = 2026-01-02T18:00:01.999296
MEAN_MOTION    = 15.45537709
ECCENTRICITY   = .0001323
INCLINATION    = 43.0005
RA_OF_ASC_NODE = 55.4959
ARG_OF_PERICENTER = 282.9580
MEAN_ANOMALY   = 181.8657

EPHEMERIS_TYPE = 0
CLASSIFICATION_TYPE = U
NORAD_CAT_ID   = 67048
ELEMENT_SET_NO = 999
REV_AT_EPOCH   = 358
BSTAR          = -.46957E-1
MEAN_MOTION_DOT = -.2053151E-1
MEAN_MOTION_DDOT = 0

CCSDS_OMM_VERS = 2.0
CREATION_DATE  = 
ORIGINATOR     = 

OBJECT_NAME    = STARLINK-35877
OBJECT_ID      = 2025-294V
CENTER_NAME    = EARTH
REF_FRAME      = TEME
TIME_SYSTEM    = UTC
MEAN_ELEMENT_THEORY = SGP/SGP4

EPOCH          = 2026-01-02T18:00:01.999296
MEAN_MOTION    = 15.40651195
ECCENTRICITY   = .0001465
INCLINATION    = 43.0009
RA_OF_ASC_NODE = 55.5630
ARG_OF_PERICENTER = 288.5320
MEAN_ANOMALY   = 148.3278

EPHEMERIS_TYPE = 0
CLASSIFICATION_TYPE = U
NORAD_CAT_ID   = 67049
ELEMENT_SET_NO = 999
REV_AT_EPOCH   = 367
BSTAR          = .11789E-2
MEAN_MOTION_DOT = .4918E-3
MEAN_MOTION_DDOT = 0

CCSDS_OMM_VERS = 2.0
CREATION_DATE  = 
ORIGINATOR     = 

OBJECT_NAME    = STARLINK-36078
OBJECT_ID      = 2025-294W
CENTER_NAME    = EARTH
REF_FRAME      = TEME
TIME_SYSTEM    = UTC
MEAN_ELEMENT_THEORY = SGP/SGP4

EPOCH          = 2026-01-02T14:23:55.048416
MEAN_MOTION    = 15.50654844
ECCENTRICITY   = .0001468
INCLINATION    = 43.0007
RA_OF_ASC_NODE = 56.3378
ARG_OF_PERICENTER = 254.7097
MEAN_ANOMALY   = 105.3601

EPHEMERIS_TYPE = 0
CLASSIFICATION_TYPE = U
NORAD_CAT_ID   = 67050
ELEMENT_SET_NO = 999
REV_AT_EPOCH   = 463
BSTAR          = .17357E-2
MEAN_MOTION_DOT = .103113E-2
MEAN_MOTION_DDOT = 0

CCSDS_OMM_VERS = 2.0
CREATION_DATE  = 
ORIGINATOR     = 

OBJECT_NAME    = STARLINK-35706
OBJECT_ID      = 2025-294X
CENTER_NAME    = EARTH
REF_FRAME      = TEME
TIME_SYSTEM    = UTC
MEAN_ELEMENT_THEORY = SGP/SGP4

EPOCH          = 2026-01-02T14:23:25.101312
MEAN_MOTION    = 15.50618630
ECCENTRICITY   = .000154
INCLINATION    = 43.0006
RA_OF_ASC_NODE = 56.3351
ARG_OF_PERICENTER = 255.1431
MEAN_ANOMALY   = 104.9259

EPHEMERIS_TYPE = 0
CLASSIFICATION_TYPE = U
NORAD_CAT_ID   = 67051
ELEMENT_SET_NO = 999
REV_AT_EPOCH   = 463
BSTAR          = .18638E-2
MEAN_MOTION_DOT = .110717E-2
MEAN_MOTION_DDOT = 0

CCSDS_OMM_VERS = 2.0
CREATION_DATE  = 
ORIGINATOR     = 

OBJECT_NAME    = STARLINK-35720
OBJECT_ID      = 2025-294Y
CENTER_NAME    = EARTH
REF_FRAME      = TEME
TIME_SYSTEM    = UTC
MEAN_ELEMENT_THEORY = SGP/SGP4

EPOCH          = 2026-01-02T14:22:55.626816
MEAN_MOTION    = 15.50617303
ECCENTRICITY   = .0001448
INCLINATION    = 43.0006
RA_OF_ASC_NODE = 56.3324
ARG_OF_PERICENTER = 254.9027
MEAN_ANOMALY   = 105.1673

EPHEMERIS_TYPE = 0
CLASSIFICATION_TYPE = U
NORAD_CAT_ID   = 67052
ELEMENT_SET_NO = 999
REV_AT_EPOCH   = 463
BSTAR          = .23678E-2
MEAN_MOTION_DOT = .141296E-2
MEAN_MOTION_DDOT = 0

CCSDS_OMM_VERS = 2.0
CREATION_DATE  = 
ORIGINATOR     = 

OBJECT_NAME    = STARLINK-35739
OBJECT_ID      = 2025-294Z
CENTER_NAME    = EARTH
REF_FRAME      = TEME
TIME_SYSTEM    = UTC
MEAN_ELEMENT_THEORY = SGP/SGP4

EPOCH          = 2026-01-02T14:22:26.008032
MEAN_MOTION    = 15.50614572
ECCENTRICITY   = .0001484
INCLINATION    = 43.0007
RA_OF_ASC_NODE = 56.3299
ARG_OF_PERICENTER = 261.6899
MEAN_ANOMALY   = 98.3793

EPHEMERIS_TYPE = 0
CLASSIFICATION_TYPE = U
NORAD_CAT_ID   = 67053
ELEMENT_SET_NO = 999
REV_AT_EPOCH   = 463
BSTAR          = .23902E-2
MEAN_MOTION_DOT = .142643E-2
MEAN_MOTION_DDOT = 0

CCSDS_OMM_VERS = 2.0
CREATION_DATE  = 
ORIGINATOR     = 

OBJECT_NAME    = STARLINK-35754
OBJECT_ID      = 2025-294AA
CENTER_NAME    = EARTH
REF_FRAME      = TEME
TIME_SYSTEM    = UTC
MEAN_ELEMENT_THEORY = SGP/SGP4

EPOCH          = 2026-01-02T14:21:56.191392
MEAN_MOTION    = 15.50614927
ECCENTRICITY   = .0001553
INCLINATION    = 43.0005
RA_OF_ASC_NODE = 56.3266
ARG_OF_PERICENTER = 257.8139
MEAN_ANOMALY   = 102.2547

EPHEMERIS_TYPE = 0
CLASSIFICATION_TYPE = U
NORAD_CAT_ID   = 67054
ELEMENT_SET_NO = 999
REV_AT_EPOCH   = 463
BSTAR          = .18426E-2
MEAN_MOTION_DOT = .109418E-2
MEAN_MOTION_DDOT = 0

CCSDS_OMM_VERS = 2.0
CREATION_DATE  = 
ORIGINATOR     = 

OBJECT_NAME    = STARLINK-35790
OBJECT_ID      = 2025-294AB
CENTER_NAME    = EARTH
REF_FRAME      = TEME
TIME_SYSTEM    = UTC
MEAN_ELEMENT_THEORY = SGP/SGP4

EPOCH          = 2026-01-02T14:21:26.603712
MEAN_MOTION    = 15.50610647
ECCENTRICITY   = .0001624
INCLINATION    = 43.0003
RA_OF_ASC_NODE = 56.3228
ARG_OF_PERICENTER = 260.9913
MEAN_ANOMALY   = 99.0763

EPHEMERIS_TYPE = 0
CLASSIFICATION_TYPE = U
NORAD_CAT_ID   = 67055
ELEMENT_SET_NO = 999
REV_AT_EPOCH   = 463
BSTAR          = .17832E-2
MEAN_MOTION_DOT = .105814E-2
MEAN_MOTION_DDOT = 0

CCSDS_OMM_VERS = 2.0
CREATION_DATE  = 
ORIGINATOR     = 

OBJECT_NAME    = STARLINK-36143
OBJECT_ID      = 2025-294AC
CENTER_NAME    = EARTH
REF_FRAME      = TEME
TIME_SYSTEM    = UTC
MEAN_ELEMENT_THEORY = SGP/SGP4

EPOCH          = 2026-01-02T06:36:14.262912
MEAN_MOTION    = 15.50285346
ECCENTRICITY   = .0001273
INCLINATION    = 43.0002
RA_OF_ASC_NODE = 58.1981
ARG_OF_PERICENTER = 265.4668
MEAN_ANOMALY   = 94.6047

EPHEMERIS_TYPE = 0
CLASSIFICATION_TYPE = U
NORAD_CAT_ID   = 67056
ELEMENT_SET_NO = 999
REV_AT_EPOCH   = 458
BSTAR          = -.32411E-2
MEAN_MOTION_DOT = -.184142E-2
MEAN_MOTION_DDOT = 0

CCSDS_OMM_VERS = 2.0
CREATION_DATE  = 
ORIGINATOR     = 

OBJECT_NAME    = STARLINK-36141
OBJECT_ID      = 2025-294AD
CENTER_NAME    = EARTH
REF_FRAME      = TEME
TIME_SYSTEM    = UTC
MEAN_ELEMENT_THEORY = SGP/SGP4

EPOCH          = 2026-01-02T14:20:28.579200
MEAN_MOTION    = 15.50512095
ECCENTRICITY   = .0001393
INCLINATION    = 43.0006
RA_OF_ASC_NODE = 56.3183
ARG_OF_PERICENTER = 271.7628
MEAN_ANOMALY   = 88.3073

EPHEMERIS_TYPE = 0
CLASSIFICATION_TYPE = U
NORAD_CAT_ID   = 67057
ELEMENT_SET_NO = 999
REV_AT_EPOCH   = 463
BSTAR          = .78063E-3
MEAN_MOTION_DOT = .45612E-3
MEAN_MOTION_DDOT = 0

